{
  "norad_id": 67405,
  "name": "STARLINK-36452",
  "history": [
    {
      "epoch": "2026-03-28T19:15:09.464832Z",
      "apogee_km": 484.29713702764457,
      "perigee_km": 481.70252952277406,
      "latitude_deg": -2.3847513655239484e-05,
      "longitude_deg": 14.675524497065547,
      "height_km": 482.5457720821977,
      "semi_major_axis_km": 6861.136833275209,
      "eccentricity": 0.00018908,
      "inclination_deg": 42.9996,
      "raan_deg": 129.6824,
      "arg_perigee_deg": 280.2622,
      "mean_anomaly_deg": 79.8016,
      "mean_motion_rev_day": 15.27596452
    }
  ]
}